COMMENT,ORIGINATOR,NORAD_CAT_ID,OBJECT_NAME,OBJECT_TYPE,CLASSIFICATION_TYPE,INTLDES,EPOCH,EPOCH_MICROSECONDS,MEAN_MOTION,ECCENTRICITY,INCLINATION,RA_OF_ASC_NODE,ARG_OF_PERICENTER,MEAN_ANOMALY,EPHEMERIS_TYPE,ELEMENT_SET_NO,REV_AT_EPOCH,BSTAR,MEAN_MOTION_DOT,MEAN_MOTION_DDOT,FILE,TLE_LINE0,TLE_LINE1,TLE_LINE2,OBJECT_ID,OBJECT_NUMBER,SEMIMAJOR_AXIS,PERIOD,APOGEE,PERIGEE,DECAYED
"GENERATED VIA SPACETRACK.ORG API","18 SPCS","48894","SPACEBEE-107","PAYLOAD","U","21059R","2022-11-08 07:10:25","494816","15.19448221","0.0007887","97.5757","81.9201","330.435","29.6438","0","999","7575","0.00088231","0.0001868","0","3648805","0 SPACEBEE-107","1 48894U 21059R   22312.29890619  .00018680  00000-0  88231-3 0  9992","2 48894  97.5757  81.9201 0007887 330.4350  29.6438 15.19448221 75757","2021-059R","48894","6885.644","94.771","512.940","502.078","1"
"GENERATED VIA SPACETRACK.ORG API","18 SPCS","48894","SPACEBEE-107","PAYLOAD","U","21059R","2022-11-08 15:04:34","637088","15.19467005","0.0007835","97.5758","82.2505","329.361","30.7166","0","999","7580","0.00084607","0.00017918","0","3649076","0 SPACEBEE-107","1 48894U 21059R   22312.62817867  .00017918  00000-0  84607-3 0  9999","2 48894  97.5758  82.2505 0007835 329.3610  30.7166 15.19467005 75806","2021-059R","48894","6885.587","94.770","512.847","502.057","1"
"GENERATED VIA SPACETRACK.ORG API","18 SPCS","48894","SPACEBEE-107","PAYLOAD","U","21059R","2022-11-09 08:27:41","718816","15.19502787","0.0007825","97.5758","82.9775","326.9651","33.1094","0","999","7591","0.00089425","0.00018964","0","3649497","0 SPACEBEE-107","1 48894U 21059R   22313.35256619  .00018964  00000-0  89425-3 0  9997","2 48894  97.5758  82.9775 0007825 326.9651  33.1094 15.19502787 75915","2021-059R","48894","6885.479","94.768","512.732","501.956","1"
"GENERATED VIA SPACETRACK.ORG API","18 SPCS","48894","SPACEBEE-107","PAYLOAD","U","21059R","2022-11-09 08:27:41","718816","15.19502787","0.0007825","97.5758","82.9775","326.9651","33.1094","0","999","7591","0.00089425","0.00018964","0","3649526","0 SPACEBEE-107","1 48894U 21059R   22313.35256619  .00018964  00000-0  89425-3 0  9997","2 48894  97.5758  82.9775 0007825 326.9651  33.1094 15.19502787 75915","2021-059R","48894","6885.479","94.768","512.732","501.956","1"
"GENERATED VIA SPACETRACK.ORG API","18 SPCS","48894","SPACEBEE-107","PAYLOAD","U","21059R","2022-11-09 21:06:18","836352","15.19523722","0.0007824","97.576","83.5062","324.8258","35.2459","0","999","7599","0.00080899","0.00017156","0","3650001","0 SPACEBEE-107","1 48894U 21059R   22313.87938468  .00017156  00000-0  80899-3 0  9991","2 48894  97.5760  83.5062 0007824 324.8258  35.2459 15.19523722 75991","2021-059R","48894","6885.416","94.767","512.668","501.894","1"
"GENERATED VIA SPACETRACK.ORG API","18 SPCS","48894","SPACEBEE-107","PAYLOAD","U","21059R","2022-11-10 08:10:05","897856","15.19536173","0.0007836","97.5759","83.9688","323.0283","37.0411","0","999","7606","0.00066078","0.00013999","0","3650424","0 SPACEBEE-107","1 48894U 21059R   22314.34034604  .00013999  00000-0  66078-3 0  9997","2 48894  97.5759  83.9688 0007836 323.0283  37.0411 15.19536173 76060","2021-059R","48894","6885.378","94.766","512.639","501.848","1"
"GENERATED VIA SPACETRACK.ORG API","18 SPCS","48894","SPACEBEE-107","PAYLOAD","U","21059R","2022-11-10 20:48:42","148800","15.19551919","0.0007819","97.576","84.4973","320.734","39.3327","0","999","7614","0.00069618","0.00014761","0","3650843","0 SPACEBEE-107","1 48894U 21059R   22314.86715450  .00014761  00000-0  69618-3 0  9990","2 48894  97.5760  84.4973 0007819 320.7340  39.3327 15.19551919 76149","2021-059R","48894","6885.331","94.765","512.579","501.812","1"
"GENERATED VIA SPACETRACK.ORG API","18 SPCS","48894","SPACEBEE-107","PAYLOAD","U","21059R","2022-11-10 22:23:31","652736","15.19553626","0.0007825","97.576","84.5635","320.5812","39.4852","0","999","7615","0.00071258","0.00015112","0","3650963","0 SPACEBEE-107","1 48894U 21059R   22314.93300524  .00015112  00000-0  71258-3 0  9994","2 48894  97.5760  84.5635 0007825 320.5812  39.4852 15.19553626 76156","2021-059R","48894","6885.326","94.765","512.578","501.803","1"
"GENERATED VIA SPACETRACK.ORG API","18 SPCS","48894","SPACEBEE-107","PAYLOAD","U","21059R","2022-11-11 07:52:28","472448","15.19564803","0.0007852","97.576","84.96","319.11","40.9544","0","999","7621","0.00068595","0.00014548","0","3651496","0 SPACEBEE-107","1 48894U 21059R   22315.32810732  .00014548  00000-0  68595-3 0  9997","2 48894  97.5760  84.9600 0007852 319.1100  40.9544 15.19564803 76217","2021-059R","48894","6885.292","94.764","512.563","501.751","1"
"GENERATED VIA SPACETRACK.ORG API","18 SPCS","48894","SPACEBEE-107","PAYLOAD","U","21059R","2022-11-11 20:31:03","786816","15.19584643","0.0007816","97.5761","85.4885","317.1792","42.8833","0","999","7629","0.00081259","0.00017263","0","3651775","0 SPACEBEE-107","1 48894U 21059R   22315.85490494  .00017263  00000-0  81259-3 0  9993","2 48894  97.5761  85.4885 0007816 317.1792  42.8833 15.19584643 76298","2021-059R","48894","6885.232","94.763","512.478","501.715","1"
"GENERATED VIA SPACETRACK.ORG API","18 SPCS","48894","SPACEBEE-107","PAYLOAD","U","21059R","2022-11-12 07:34:49","204128","15.19602517","0.0007759","97.576","85.9511","315.3633","44.6976","0","999","7636","0.00087841","0.0001868","0","3652217","0 SPACEBEE-107","1 48894U 21059R   22316.31584727  .00018680  00000-0  87841-3 0  9995","2 48894  97.5760  85.9511 0007759 315.3633  44.6976 15.19602517 76365","2021-059R","48894","6885.178","94.762","512.385","501.701","1"
"GENERATED VIA SPACETRACK.ORG API","18 SPCS","48894","SPACEBEE-107","PAYLOAD","U","21059R","2022-11-12 07:34:49","204128","15.19602517","0.0007759","97.576","85.9511","315.3633","44.6976","0","999","7636","0.00087841","0.0001868","0","3652392","0 SPACEBEE-107","1 48894U 21059R   22316.31584727  .00018680  00000-0  87841-3 0  9995","2 48894  97.5760  85.9511 0007759 315.3633  44.6976 15.19602517 76365","2021-059R","48894","6885.178","94.762","512.385","501.701","1"
"GENERATED VIA SPACETRACK.ORG API","18 SPCS","48894","SPACEBEE-107","PAYLOAD","U","21059R","2022-11-12 21:48:12","685824","15.1962023","0.0007721","97.5761","86.5458","313.2893","46.7696","0","999","7645","0.00071275","0.00015144","0","3652635","0 SPACEBEE-107","1 48894U 21059R   22316.90848016  .00015144  00000-0  71275-3 0  9990","2 48894  97.5761  86.5458 0007721 313.2893  46.7696 15.19620230 76451","2021-059R","48894","6885.124","94.761","512.305","501.673","1"
"GENERATED VIA SPACETRACK.ORG API","18 SPCS","48894","SPACEBEE-107","PAYLOAD","U","21059R","2022-11-13 08:51:57","129408","15.19636089","0.000773","97.5761","87.0084","311.5986","48.4585","0","999","7652","0.00069087","0.00014683","0","3653043","0 SPACEBEE-107","1 48894U 21059R   22317.36941122  .00014683  00000-0  69087-3 0  9998","2 48894  97.5761  87.0084 0007730 311.5986  48.4585 15.19636089 76529","2021-059R","48894","6885.077","94.760","512.264","501.619","1"
"GENERATED VIA SPACETRACK.ORG API","18 SPCS","48894","SPACEBEE-107","PAYLOAD","U","21059R","2022-11-13 08:51:57","129408","15.19636089","0.000773","97.5761","87.0084","311.5986","48.4585","0","999","7652","0.00069087","0.00014683","0","3653238","0 SPACEBEE-107","1 48894U 21059R   22317.36941122  .00014683  00000-0  69087-3 0  9998","2 48894  97.5761  87.0084 0007730 311.5986  48.4585 15.19636089 76529","2021-059R","48894","6885.077","94.760","512.264","501.619","1"
"GENERATED VIA SPACETRACK.ORG API","18 SPCS","48894","SPACEBEE-107","PAYLOAD","U","21059R","2022-11-14 08:34:14","31840","15.19665244","0.0007652","97.5762","87.9996","307.9972","52.0571","0","999","7667","0.00061986","0.00013175","0","3654975","0 SPACEBEE-107","1 48894U 21059R   22318.35710685  .00013175  00000-0  61986-3 0  9991","2 48894  97.5762  87.9996 0007652 307.9972  52.0571 15.19665244 76675","2021-059R","48894","6884.989","94.758","512.122","501.585","1"
"GENERATED VIA SPACETRACK.ORG API","18 SPCS","48894","SPACEBEE-107","PAYLOAD","U","21059R","2022-11-14 22:47:35","430432","15.19680327","0.0007592","97.576","88.5943","305.6696","54.3831","0","999","7676","0.00055645","0.00011823","0","3656702","0 SPACEBEE-107","1 48894U 21059R   22318.94971563  .00011823  00000-0  55645-3 0  9993","2 48894  97.5760  88.5943 0007592 305.6696  54.3831 15.19680327 76766","2021-059R","48894","6884.943","94.757","512.035","501.581","1"
"GENERATED VIA SPACETRACK.ORG API","18 SPCS","48894","SPACEBEE-107","PAYLOAD","U","21059R","2022-11-15 08:16:29","366112","15.19693323","0.0007596","97.576","88.9908","304.1416","55.9098","0","999","7682","0.0006167","0.00013118","0","3657603","0 SPACEBEE-107","1 48894U 21059R   22319.34478433  .00013118  00000-0  61670-3 0  9990","2 48894  97.5760  88.9908 0007596 304.1416  55.9098 15.19693323 76828","2021-059R","48894","6884.904","94.756","511.998","501.539","1"
"GENERATED VIA SPACETRACK.ORG API","18 SPCS","48894","SPACEBEE-107","PAYLOAD","U","21059R","2022-11-15 20:55:00","986016","15.19704593","0.0007608","97.5758","89.5194","302.0461","58.0034","0","999","7690","0.00053394","0.00011349","0","3657961","0 SPACEBEE-107","1 48894U 21059R   22319.87153919  .00011349  00000-0  53394-3 0  9995","2 48894  97.5758  89.5194 0007608 302.0461  58.0034 15.19704593 76905","2021-059R","48894","6884.870","94.755","511.973","501.497","1"
"GENERATED VIA SPACETRACK.ORG API","18 SPCS","48894","SPACEBEE-107","PAYLOAD","U","21059R","2022-11-16 07:58:43","320576","15.19716042","0.0007631","97.5757","89.9819","300.1033","59.9444","0","999","7697","0.00052774","0.0001122","0","3659082","0 SPACEBEE-107","1 48894U 21059R   22320.33244584  .00011220  00000-0  52774-3 0  9996","2 48894  97.5757  89.9819 0007631 300.1033  59.9444 15.19716042 76976","2021-059R","48894","6884.835","94.755","511.954","501.446","1"
